{
  "type": "FeatureCollection",
  "features": [
    {
      "type": "Feature",
      "properties": {
        "norad_id": 33822,
        "name": "COSMOS 2251 DEB",
        "group": "cosmos-2251-debris",
        "lat": -42.72584390174377,
        "lon": 14.927045150933205,
        "alt_km": 744.5270183952061,
        "timestamp": "2025-12-20T16:47:36.677466+00:00",
        "meta_object_name": "COSMOS 2251 DEB",
        "meta_object_id": "1993-036BP",
        "meta_epoch": "2025-12-20T12:28:38.229024",
        "meta_mean_motion": 14.13104908,
        "meta_eccentricity": 0.0152891,
        "meta_inclination": 74.0675,
        "meta_ra_of_asc_node": 179.947,
        "meta_arg_of_pericenter": 224.3699,
        "meta_mean_anomaly": 165.8667,
        "meta_ephemeris_type": 0,
        "meta_classification_type": "U",
        "meta_norad_cat_id": 33822,
        "meta_element_set_no": 999,
        "meta_rev_at_epoch": 86164,
        "meta_bstar": 0.00089699,
        "meta_mean_motion_dot": 1.848e-05,
        "meta_mean_motion_ddot": 0,
        "tle_line1": "1 33822U 93036BP  25354.51988691  .00001848  00000+0  89699-3 0  9999",
        "tle_line2": "2 33822  74.0675 179.9470 0152891 224.3699 165.8667 14.13104908861642"
      },
      "geometry": {
        "type": "Point",
        "coordinates": [
          14.927045150933205,
          -42.72584390174377
        ]
      }
    },
    {
      "type": "Feature",
      "properties": {
        "norad_id": 33823,
        "name": "COSMOS 2251 DEB",
        "group": "cosmos-2251-debris",
        "lat": 4.662446929018561,
        "lon": 136.73744776069134,
        "alt_km": 937.576878141751,
        "timestamp": "2025-12-20T16:47:36.677476+00:00",
        "meta_object_name": "COSMOS 2251 DEB",
        "meta_object_id": "1993-036BQ",
        "meta_epoch": "2025-12-20T09:58:30.171936",
        "meta_mean_motion": 13.98967787,
        "meta_eccentricity": 0.0209405,
        "meta_inclination": 73.8096,
        "meta_ra_of_asc_node": 135.8775,
        "meta_arg_of_pericenter": 259.8051,
        "meta_mean_anomaly": 112.5653,
        "meta_ephemeris_type": 0,
        "meta_classification_type": "U",
        "meta_norad_cat_id": 33823,
        "meta_element_set_no": 999,
        "meta_rev_at_epoch": 85717,
        "meta_bstar": 0.00055908,
        "meta_mean_motion_dot": 9.47e-06,
        "meta_mean_motion_ddot": 0,
        "tle_line1": "1 33823U 93036BQ  25354.41562699  .00000947  00000+0  55908-3 0  9990",
        "tle_line2": "2 33823  73.8096 135.8775 0209405 259.8051 112.5653 13.98967787857176"
      },
      "geometry": {
        "type": "Point",
        "coordinates": [
          136.73744776069134,
          4.662446929018561
        ]
      }
    },
    {
      "type": "Feature",
      "properties": {
        "norad_id": 33825,
        "name": "COSMOS 2251 DEB",
        "group": "cosmos-2251-debris",
        "lat": -57.97058125401671,
        "lon": -140.35675248700937,
        "alt_km": 673.7395980669826,
        "timestamp": "2025-12-20T16:47:36.677487+00:00",
        "meta_object_name": "COSMOS 2251 DEB",
        "meta_object_id": "1993-036BS",
        "meta_epoch": "2025-12-20T11:19:17.072832",
        "meta_mean_motion": 14.69826205,
        "meta_eccentricity": 0.0084939,
        "meta_inclination": 73.9844,
        "meta_ra_of_asc_node": 12.7547,
        "meta_arg_of_pericenter": 337.9681,
        "meta_mean_anomaly": 138.872,
        "meta_ephemeris_type": 0,
        "meta_classification_type": "U",
        "meta_norad_cat_id": 33825,
        "meta_element_set_no": 999,
        "meta_rev_at_epoch": 88993,
        "meta_bstar": 0.00055372,
        "meta_mean_motion_dot": 3.463e-05,
        "meta_mean_motion_ddot": 0,
        "tle_line1": "1 33825U 93036BS  25354.47172538  .00003463  00000+0  55372-3 0  9998",
        "tle_line2": "2 33825  73.9844  12.7547 0084939 337.9681 138.8720 14.69826205889933"
      },
      "geometry": {
        "type": "Point",
        "coordinates": [
          -140.35675248700937,
          -57.97058125401671
        ]
      }
    },
    {
      "type": "Feature",
      "properties": {
        "norad_id": 33826,
        "name": "COSMOS 2251 DEB",
        "group": "cosmos-2251-debris",
        "lat": -24.409880862338266,
        "lon": 27.46094193761761,
        "alt_km": 736.8089531330215,
        "timestamp": "2025-12-20T16:47:36.677497+00:00",
        "meta_object_name": "COSMOS 2251 DEB",
        "meta_object_id": "1993-036BT",
        "meta_epoch": "2025-12-20T03:55:55.835616",
        "meta_mean_motion": 14.51754585,
        "meta_eccentricity": 0.00825827,
        "meta_inclination": 74.0645,
        "meta_ra_of_asc_node": 35.9183,
        "meta_arg_of_pericenter": 77.77,
        "meta_mean_anomaly": 338.2277,
        "meta_ephemeris_type": 0,
        "meta_classification_type": "U",
        "meta_norad_cat_id": 33826,
        "meta_element_set_no": 999,
        "meta_rev_at_epoch": 87877,
        "meta_bstar": 0.00038261043,
        "meta_mean_motion_dot": 1.579e-05,
        "meta_mean_motion_ddot": 0,
        "tle_line1": "1 33826U 93036BT  25354.16384069  .00001579  00000+0  38261-3 0  9993",
        "tle_line2": "2 33826  74.0645  35.9183 0082582  77.7700 338.2277 14.51754585878776"
      },
      "geometry": {
        "type": "Point",
        "coordinates": [
          27.46094193761761,
          -24.409880862338266
        ]
      }
    },
    {
      "type": "Feature",
      "properties": {
        "norad_id": 33828,
        "name": "COSMOS 2251 DEB",
        "group": "cosmos-2251-debris",
        "lat": 19.871054966763886,
        "lon": -130.77696058120756,
        "alt_km": 742.2841670575881,
        "timestamp": "2025-12-20T16:47:36.677508+00:00",
        "meta_object_name": "COSMOS 2251 DEB",
        "meta_object_id": "1993-036BV",
        "meta_epoch": "2025-12-20T08:54:56.182176",
        "meta_mean_motion": 14.44353534,
        "meta_eccentricity": 0.0029516,
        "meta_inclination": 74.0454,
        "meta_ra_of_asc_node": 223.8986,
        "meta_arg_of_pericenter": 295.6593,
        "meta_mean_anomaly": 178.7294,
        "meta_ephemeris_type": 0,
        "meta_classification_type": "U",
        "meta_norad_cat_id": 33828,
        "meta_element_set_no": 999,
        "meta_rev_at_epoch": 88423,
        "meta_bstar": 0.000288,
        "meta_mean_motion_dot": 9.7e-06,
        "meta_mean_motion_ddot": 0,
        "tle_line1": "1 33828U 93036BV  25354.37148359  .00000970  00000+0  28800-3 0  9990",
        "tle_line2": "2 33828  74.0454 223.8986 0029516 295.6593 178.7294 14.44353534884239"
      },
      "geometry": {
        "type": "Point",
        "coordinates": [
          -130.77696058120756,
          19.871054966763886
        ]
      }
    },
    {
      "type": "Feature",
      "properties": {
        "norad_id": 33830,
        "name": "COSMOS 2251 DEB",
        "group": "cosmos-2251-debris",
        "lat": 65.30616996300722,
        "lon": -3.756644210006183,
        "alt_km": 653.5398614496025,
        "timestamp": "2025-12-20T16:47:36.677518+00:00",
        "meta_object_name": "COSMOS 2251 DEB",
        "meta_object_id": "1993-036BX",
        "meta_epoch": "2025-12-20T02:23:57.641280",
        "meta_mean_motion": 14.76972703,
        "meta_eccentricity": 0.00425749,
        "meta_inclination": 74.0314,
        "meta_ra_of_asc_node": 215.935,
        "meta_arg_of_pericenter": 334.516,
        "meta_mean_anomaly": 186.5439,
        "meta_ephemeris_type": 0,
        "meta_classification_type": "U",
        "meta_norad_cat_id": 33830,
        "meta_element_set_no": 999,
        "meta_rev_at_epoch": 89580,
        "meta_bstar": 0.00047360759,
        "meta_mean_motion_dot": 3.353e-05,
        "meta_mean_motion_ddot": 0,
        "tle_line1": "1 33830U 93036BX  25354.09997270  .00003353  00000+0  47361-3 0  9997",
        "tle_line2": "2 33830  74.0314 215.9350 0042574 334.5160 186.5439 14.76972703895809"
      },
      "geometry": {
        "type": "Point",
        "coordinates": [
          -3.756644210006183,
          65.30616996300722
        ]
      }
    },
    {
      "type": "Feature",
      "properties": {
        "norad_id": 33832,
        "name": "COSMOS 2251 DEB",
        "group": "cosmos-2251-debris",
        "lat": 50.654633561727756,
        "lon": -144.80083178009374,
        "alt_km": 702.861838678753,
        "timestamp": "2025-12-20T16:47:36.677529+00:00",
        "meta_object_name": "COSMOS 2251 DEB",
        "meta_object_id": "1993-036BZ",
        "meta_epoch": "2025-12-20T07:29:42.148032",
        "meta_mean_motion": 14.60727185,
        "meta_eccentricity": 0.0024431,
        "meta_inclination": 74.0527,
        "meta_ra_of_asc_node": 195.5252,
        "meta_arg_of_pericenter": 225.2234,
        "meta_mean_anomaly": 311.8866,
        "meta_ephemeris_type": 0,
        "meta_classification_type": "U",
        "meta_norad_cat_id": 33832,
        "meta_element_set_no": 999,
        "meta_rev_at_epoch": 88535,
        "meta_bstar": 0.00081534,
        "meta_mean_motion_dot": 3.964e-05,
        "meta_mean_motion_ddot": 0,
        "tle_line1": "1 33832U 93036BZ  25354.31229338  .00003964  00000+0  81534-3 0  9995",
        "tle_line2": "2 33832  74.0527 195.5252 0024431 225.2234 311.8866 14.60727185885352"
      },
      "geometry": {
        "type": "Point",
        "coordinates": [
          -144.80083178009374,
          50.654633561727756
        ]
      }
    }
  ]
}